DUPLEX                  
1 66906U 98067XS  26079.24354681  .00021800  00000+0  30375-3 0  9995
2 66906  51.6306  16.6351 0002978 156.4039 203.7090 15.56853092 16772
ISS OBJECT XT           
1 66907U 98067XT  26079.52331039  .00172561  00000+0  12285-2 0  9999
2 66907  51.6258  10.2274 0005223 150.1907 209.9390 15.72768036 16888
ISS OBJECT XU           
1 66908U 98067XU  26079.52056677  .00170482  00000+0  12070-2 0  9994
2 66908  51.6251  10.2051 0005434 149.9319 210.1992 15.72903256 16889
SILVERSAT               
1 66909U 98067XV  26079.18151254  .00178475  00000+0  10695-2 0  9995
2 66909  51.6236  10.9348 0005872 151.9613 208.1704 15.76718316 16844
ISS OBJECT XW           
1 66910U 98067XW  26079.20605164  .00118472  00000+0  89059-3 0  9996
2 66910  51.6255  11.8505 0005807 150.0745 210.0586 15.71670531 16836
ISS OBJECT XX           
1 66911U 98067XX  26079.02665575  .00265567  00000+0  12858-2 0  9999
2 66911  51.6213  10.6240 0007540 154.6748 205.4625 15.81175637 16822
ISS OBJECT XY           
1 66912U 98067XY  26079.18337813  .00070580  00000+0  68564-3 0  9993
2 66912  51.6283  13.9735 0003834 151.9435 208.1768 15.65652756 16798
KNACKSAT-2              
1 67683U 98067XZ  26079.54319163  .00039005  00000+0  62460-3 0  9993
2 67683  51.6326  17.8843 0009741 224.4423 135.5786 15.52670292  6479
CORAL                   
1 67684U 98067YA  26079.23846071  .00058900  00000+0  82990-3 0  9998
2 67684  51.6315  18.8493 0012105 212.7395 147.2847 15.55968604  6430
GXIBA-1                 
1 67685U 98067YB  26079.21414858  .00030754  00000+0  48661-3 0  9995
2 67685  51.6332  19.4363 0011616 220.6848 139.3275 15.53099580  6422
UITMSAT-2               
1 67686U 98067YC  26079.20424217  .00036971  00000+0  56833-3 0  9992
2 67686  51.6331  19.3725 0008503 189.8163 170.2663 15.53839493  6420
HMU-SAT2                
1 67687U 98067YD  26079.53947400  .00040991  00000+0  65115-3 0  9993
2 67687  51.6329  17.8618 0008258 194.4108 165.6648 15.52885068  6395
LEOPARD                 
1 67688U 98067YE  26079.20876189  .00033610  00000+0  52397-3 0  9991
2 67688  51.6333  19.4024 0008351 190.6023 169.4793 15.53500340  6344
CREW DRAGON 12          
1 67796U 26031A   26079.29132166  .00008293  00000+0  16183-3 0  9994
2 67796  51.6345  19.9496 0006354 211.1385 148.9228 15.48390544557899
